IRIDIUM 65 [+]          
1 25288U 98021D   15353.36382424  .00000355  00000-0  11982-3 0  9991
2 25288  86.3977  92.0567 0001985  93.7817 266.3606 14.34222321926789
IRIDIUM 66 [+]          
1 25289U 98021E   15353.38309255  .00000385  00000-0  13051-3 0  9997
2 25289  86.3977  91.9568 0002076  93.6985 333.1148 14.34222831926786
IRIDIUM 67 [+]          
1 25290U 98021F   15353.37651585  .00000554  00000-0  19094-3 0  9995
2 25290  86.3977  92.0878 0002028  95.4925 264.6502 14.34214276926792
IRIDIUM 68 [+]          
1 25291U 98021G   15353.38286149  .00000347  00000-0  11702-3 0  9995
2 25291  86.3980  92.1938 0002139  94.8063 265.3377 14.34214664926760
IRIDIUM 69 [-]          
1 25319U 98026A   15353.46122777  .00000326  00000-0  10018-3 0  9992
2 25319  86.4005 115.3111 0000209 153.0564 273.8724 14.38525410924587
IRIDIUM 71 [-]          
1 25320U 98026B   15353.39941484  .00000295  00000-0  89163-4 0  9993
2 25320  86.3989 111.4923 0002164  36.4302  23.8169 14.38955341924983
IRIDIUM 70 [+]          
1 25342U 98032A   15353.35019973  .00000371  00000-0  12556-3 0  9995
2 25342  86.3983  92.4231 0002054  92.7031 327.9889 14.34214575920866
IRIDIUM 72 [+]          
1 25343U 98032B   15353.33695259  .00000375  00000-0  12691-3 0  9995
2 25343  86.3977  92.0760 0002049  95.8958 321.9082 14.34214596920861
IRIDIUM 73 [-]          
1 25344U 98032C   15353.37919440  .00000359  00000-0  89562-4 0  9995
2 25344  86.4439  73.6045 0002912  93.1989 317.3389 14.48861697928526
IRIDIUM 74 [S]          
1 25345U 98032D   15353.39173391  .00000471  00000-0  13499-3 0  9995
2 25345  86.4489  92.3808 0001974  99.9157 327.0782 14.42956217924040
IRIDIUM 75 [+]          
1 25346U 98032E   15353.34360956  .00000375  00000-0  12674-3 0  9993
2 25346  86.3981  92.3062 0002076  96.0739 323.3655 14.34222289921431
IRIDIUM 3 [+]           
1 25431U 98048A   15353.53486032  .00000136  00000-0  41397-4 0  9990
2 25431  86.3977 123.8251 0001935  90.7278 316.2278 14.34210770907408
IRIDIUM 76 [+]          
1 25432U 98048B   15353.48327703  .00000296  00000-0  98517-4 0  9997
2 25432  86.3973 123.6184 0002146  92.9554 309.6305 14.34217604907381
IRIDIUM 82 [+]          
1 25467U 98051A   15353.51411585  .00000387  00000-0  13130-3 0  9993
2 25467  86.4002 250.1719 0001703  84.3450 275.7940 14.34215722908402
IRIDIUM 81 [+]          
1 25468U 98051B   15353.29846427  .00000348  00000-0  11720-3 0  9996
2 25468  86.3980 249.9138 0002003  88.9399 271.2027 14.34215710904594
IRIDIUM 80 [+]          
1 25469U 98051C   15353.23115869  .00000110  00000-0  32168-4 0  9997
2 25469  86.3982 250.2043 0002112  87.3292  23.5541 14.34214315904581
IRIDIUM 77 [+]          
1 25471U 98051E   15353.51148078  .00000032  00000-0  42396-5 0  9997
2 25471  86.3972 249.7115 0002137  81.1030   3.6132 14.34210032909824
IRIDIUM 2 [-]           
1 25527U 98066A   15353.50400803  .00005750  00000-0  31378-3 0  9999
2 25527  85.5307 353.8179 0007459 300.3374 174.3233 15.14119984935230
IRIDIUM 86 [+]          
1 25528U 98066B   15353.24433180  .00000253  00000-0  83443-4 0  9999
2 25528  86.3965 218.0135 0001945  79.4203 280.7212 14.34219089901110
IRIDIUM 84 [+]          
1 25530U 98066D   15353.55511417  .00000265  00000-0  87454-4 0  9995
2 25530  86.3967 218.0392 0001974  87.6377 272.5045 14.34219813898792
IRIDIUM 83 [+]          
1 25531U 98066E   15353.30774257  .00000262  00000-0  86509-4 0  9999
2 25531  86.3969 218.2454 0001994  87.4123 272.7301 14.34218345896115
IRIDIUM 20 [+]          
1 25577U 98074A   15353.50676379  .00000314  00000-0  10521-3 0  9994
2 25577  86.3973 123.5379 0001984  94.2753 265.8669 14.34217780890226
IRIDIUM 11 [+]          
1 25578U 98074B   15353.46221807  .00000299  00000-0  99851-4 0  9998
2 25578  86.3972 123.7634 0001837  95.5755 329.2583 14.34217659899184
IRIDIUM 14 [S]          
1 25777U 99032A   15353.43066616  .00000371  00000-0  12528-3 0  9992
2 25777  86.3968  92.1082 0001924  91.6340 318.8169 14.34215536876451
IRIDIUM 21 [+]          
1 25778U 99032B   15353.38920443  .00000043  00000-0  82195-5 0  9999
2 25778  86.3979  92.1511 0002154  97.4463 262.6977 14.34214262869884
IRIDIUM 91 [+]          
1 27372U 02005A   15353.50851300  .00000098  00000-0  28104-4 0  9993
2 27372  86.3981 155.8880 0001767  99.4493 317.5586 14.34219143733417
IRIDIUM 90 [S]          
1 27373U 02005B   15353.15594573  .00000263  00000-0  72526-4 0  9992
2 27373  86.4480 218.2710 0002309  77.7212 282.4248 14.42960146732611
IRIDIUM 94 [S]          
1 27374U 02005C   15353.48199678  .00000308  00000-0  10285-3 0  9999
2 27374  86.3973 123.8747 0002909  76.2752 352.4310 14.34217642737731
IRIDIUM 95 [+]          
1 27375U 02005D   15353.53553903  .00000100  00000-0  28496-4 0  9995
2 27375  86.3980 155.6606 0002080  90.8172 269.3262 14.34219562732702
IRIDIUM 96 [S]          
1 27376U 02005E   15353.51361896  .00000210  00000-0  68042-4 0  9995
2 27376  86.3996 187.1126 0003454 101.7157 258.4427 14.34217949737904
IRIDIUM 97 [+]          
1 27450U 02031A   15353.55166099  .00000072  00000-0  18483-4 0  9999
2 27450  86.3963 186.9742 0001879  94.4776 265.6634 14.34218706712024
IRIDIUM 98 [S]          
1 27451U 02031B   15353.55352675  .00000335  00000-0  11247-3 0  9999
2 27451  86.3972 250.2648 0001989  88.6316 343.9793 14.34215992713090
